SARSAT 7 (NOAA 15)      
1 25338U 98030A   12352.51361258  .00000046  00000-0  38352-4 0  5323
2 25338  98.7071 337.8679 0009829 298.5702  61.4500 14.25157986758968
GOES 11                 
1 26352U 00022A   12352.95281280  .00000027  00000-0  00000+0 0   337
2 26352   1.5501 108.4888 0003697  31.8114 327.4760  0.99041892 46193
SARSAT 8 (NOAA 16)      
1 26536U 00055A   12352.46496056  .00000456  00000-0  27026-3 0   115
2 26536  99.0697  37.1973 0009811 288.7627  71.2488 14.12820509630914
GPS BIIR-07 (DASS)      
1 26690U 01004A   12351.78293465  .00000007  00000-0  10000-3 0  6891
2 26690  53.1865 226.5066 0137919 238.4666 120.2583  2.00554298 87073
GOES 12                 
1 26871U 01031A   12352.31433955 -.00000293  00000-0  10000-3 0  8544
2 26871   2.6611  71.0867 0002059 218.1869 210.7041  1.00270715 41836
SARSAT 9 (NOAA 17)      
1 27453U 02032A   12352.63276385  .00000099  00000-0  60163-4 0  9528
2 27453  98.3215  10.2690 0011279 343.3054  16.7740 14.24521359544870
MSG-1                   
1 27509U 02040B   12351.11921684  .00000053  00000-0  10000-3 0  1616
2 27509   1.7448  61.7596 0001608 158.6551 276.8635  1.00271666 37814
GPS BIIR-08 (DASS)      
1 27663U 03005A   12352.15513077 -.00000062  00000-0  10000-3 0  1191
2 27663  56.3225  48.9402 0066883 359.8715   0.1821  2.00578718 72431
INSAT 3A                
1 27714U 03013A   12353.23072038 -.00000265  00000-0  10000-3 0  4462
2 27714   0.0709 258.7900 0006071  11.1634 353.8429  1.00270763 35536
GPS BIIR-11 (DASS)      
1 28190U 04009A   12352.26928722  .00000017  00000-0  10000-3 0  5701
2 28190  55.0952 111.4410 0086091  14.6646 345.5563  2.00567096 64108
GPS BIIR-12 (DASS)      
1 28361U 04023A   12352.05508517 -.00000060  00000-0  10000-3 0  3897
2 28361  54.8746 287.0016 0082164 194.9004 164.8718  2.00550981 62180
GPS BIIR-13 (DASS)      
1 28474U 04045A   12351.56080726  .00000054  00000-0  10000-3 0  2765
2 28474  53.7837 165.1896 0118520 205.8179 153.5883  2.00574924 59533
SARSAT 10 (NOAA 18)     
1 28654U 05018A   12352.63373567 -.00000027  00000-0  10513-4 0  4340
2 28654  99.0738 312.4924 0014509   2.3078 357.8140 14.11745447390443
GPS IIR-14M (DASS)      
1 28874U 05038A   12351.91248792  .00000012  00000-0  10000-3 0  5352
2 28874  55.2516 108.4502 0079877 229.9039 129.3712  2.00552668 52968
MSG-2                   
1 28912U 05049B   12351.15054029 -.00000014  00000-0  10000-3 0  3330
2 28912   0.3733 347.6243 0002415 118.7297  32.6134  1.00275229 25662
GOES 13                 
1 29155U 06018A   12352.42107424 -.00000258  00000-0  10000-3 0  3404
2 29155   0.2645  98.0055 0001383 342.0812  83.4387  1.00269471 24080
SARSAT 11 (METOP-A)     
1 29499U 06044A   12352.62890313 -.00000088  00000-0 -20134-4 0  9208
2 29499  98.6772  49.0520 0000852 149.0146 211.1054 14.21495555319787
GPS IIR-16M (DASS)      
1 29601U 06052A   12352.46513974 -.00000065  00000-0  10000-3 0  9573
2 29601  56.2793  47.8733 0040348   4.5238 355.5710  2.00564864 44587
GPS IIR-17M (DASS)      
1 32260U 07047A   12351.77724289 -.00000058  00000-0  00000+0 0  6630
2 32260  54.0256 284.7990 0050456   2.3298 357.7081  2.00563275 37966
GPS IIR-18M (DASS)      
1 32384U 07062A   12351.59358737  .00000012  00000-0  10000-3 0  7023
2 32384  55.2809 108.9575 0019853 293.7519  66.0181  2.00555583 36686
SARSAT 12 (NOAA 19)     
1 33591U 09005A   12352.61197851  .00000314  00000-0  19776-3 0  6196
2 33591  98.8840 290.2903 0013493 220.7787 139.2369 14.11433262198882
GOES 14                 
1 35491U 09033A   12352.37886384 -.00000189  00000-0  10000-3 0  7538
2 35491   0.1697 261.6294 0005107 278.9599 312.5550  1.00264756 12756
COSPAS C11 (STERKH 1)   
1 35636U 09039B   12352.57113449  .00000084  00000-0  55843-4 0  5886
2 35636  82.9538 163.1077 0019521 318.8593  41.1096 13.89562544172941
COSPAS C12 (STERKH 2)   
1 35866U 09049B   12353.20741515  .00000070  00000-0  50830-4 0  4205
2 35866  98.6296  44.8387 0002448 234.8656 125.2291 14.22513065168811
GOES 15                 
1 36411U 10008A   12352.40280520  .00000083  00000-0  10000-3 0  3627
2 36411   0.1923 257.7366 0002331  20.6827 177.5479  1.00269477 10256
ELEKTRO-L 1             
1 37344U 11001A   12352.86121873 -.00000104  00000-0  10000-3 0  4965
2 37344   0.0341 211.1086 0001474 359.5465 262.3210  1.00270759  7052
GLONASS-K 1             
1 37372U 11009A   12353.19114652  .00000044  00000-0  10000-3 0  5400
2 37372  64.8359 120.2047 0005340 222.2428 345.7469  2.13107349 14068
